STARLINK-1188
1 15220C 20012AU  21326.15267045  .01027701  00000-0  38652-2 0  3260
2 15220  53.0535 165.2252 0001389 103.3335 209.1312 15.86062957    16
